[{"OBJECT_NAME":"GAOFEN-9 03","OBJECT_ID":"2020-039A","EPOCH":"2026-03-09T21:55:15.121344","MEAN_MOTION":15.30529116,"ECCENTRICITY":0.0013094,"INCLINATION":97.5219,"RA_OF_ASC_NODE":201.2158,"ARG_OF_PERICENTER":77.4533,"MEAN_ANOMALY":282.8172,"EPHEMERIS_TYPE":0,"CLASSIFICATION_TYPE":"U","NORAD_CAT_ID":45794,"ELEMENT_SET_NO":999,"REV_AT_EPOCH":31856,"BSTAR":0.00039258132,"MEAN_MOTION_DOT":0.00011544,"MEAN_MOTION_DDOT":0},{"OBJECT_NAME":"STARLINK-34337","OBJECT_ID":"2025-117W","EPOCH":"2026-03-09T07:10:17.114880","MEAN_MOTION":15.30194023,"ECCENTRICITY":0.00011994,"INCLINATION":53.1613,"RA_OF_ASC_NODE":41.5755,"ARG_OF_PERICENTER":96.3533,"MEAN_ANOMALY":263.7604,"EPHEMERIS_TYPE":0,"CLASSIFICATION_TYPE":"U","NORAD_CAT_ID":64223,"ELEMENT_SET_NO":999,"REV_AT_EPOCH":4446,"BSTAR":0.001092497,"MEAN_MOTION_DOT":0.00032131,"MEAN_MOTION_DDOT":0}]
